0 COSMOS 2251 DEB
1 35672U 93036APP 13281.86362506  .00004203  00000-0  10990-2 0  4259
2 35672 074.0637 096.5755 0059185 221.4302 206.2451 14.48640764226702
0 COSMOS 2251 DEB
1 35672U 93036APP 13283.18637910  .00005282  00000-0  13784-2 0  4263
2 35672 074.0636 094.1008 0059148 218.6738 264.5382 14.48659795226890
0 COSMOS 2251 DEB
1 35672U 93036APP 13287.80178536  .00008093  00000-0  21054-2 0  4284
2 35672 074.0633 085.4663 0059031 209.0906 214.8008 14.48702012227568
0 COSMOS 2251 DEB
1 35672U 93036APP 13290.09127579  .00007886  00000-0  20508-2 0  4293
2 35672 074.0639 081.1827 0058912 204.3901 275.2152 14.48730726227899
0 COSMOS 2251 DEB
1 35672U 93036APP 13292.09415628  .00006862  00000-0  17848-2 0  4308
2 35672 074.0648 077.4353 0058754 200.2452 281.0947 14.48757676228184
0 COSMOS 2251 DEB
1 35672U 93036APP 13294.09620491  .00008312  00000-0  21590-2 0  4318
2 35672 074.0654 073.6899 0058601 196.1367 282.7919 14.48782945228479
